GLOBALSTAR M079         
1 37188U 10054A   24366.86297216 -.00000057  00000+0  26105-3 0  9998
2 37188  52.0049 289.1509 0000527  36.3041  32.3846 12.62269126655328
GLOBALSTAR M074         
1 37189U 10054B   24366.89083010 -.00000050  00000+0  29951-3 0  9992
2 37189  52.0026 288.4132 0000893  54.6136  21.3189 12.62260950655933
GLOBALSTAR M076         
1 37190U 10054C   24366.90678351 -.00000065  00000+0  21800-3 0  9995
2 37190  52.0038 288.5212 0000841  33.9845 354.1293 12.62275494655659
GLOBALSTAR M077         
1 37191U 10054D   24366.91196826 -.00000056  00000+0  26638-3 0  9993
2 37191  52.0058 245.3151 0000980  69.1419  41.7338 12.62269292656027
GLOBALSTAR M075         
1 37192U 10054E   24366.92138177 -.00000072  00000+0  17928-3 0  9990
2 37192  51.9967 330.8247 0000509  57.7760 337.6357 12.62270910654722
GLOBALSTAR M073         
1 37193U 10054F   24366.85592484 -.00000053  00000+0  28558-3 0  9998
2 37193  52.0046 244.7161 0000930  62.5776  35.0417 12.62261869656709
GLOBALSTAR M083         
1 37739U 11033A   24366.96303263 -.00000090  00000+0  79368-4 0  9996
2 37739  51.9829 193.3486 0000917  95.2441  69.4917 12.62270235625730
GLOBALSTAR M088         
1 37740U 11033B   24366.69584046 -.00000095  00000+0  50384-4 0  9990
2 37740  51.9732  99.7931 0000739 129.3231  21.0810 12.62266750621242
GLOBALSTAR M091         
1 37741U 11033C   25001.15731785 -.00000077  00000+0  14894-3 0  9998
2 37741  52.0008  61.6455 0000585 159.4504 228.1595 12.62272227622355
GLOBALSTAR M085         
1 37742U 11033D   24366.54335049 -.00000089  00000+0  84748-4 0  9997
2 37742  51.9887  14.7006 0000213 153.4176  23.5758 12.62263344622524
GLOBALSTAR M081         
1 37743U 11033E   24366.80579330 -.00000077  00000+0  14876-3 0  9991
2 37743  51.9978  16.5839 0000065 321.0594 209.8753 12.62274777622708
GLOBALSTAR M089         
1 37744U 11033F   24366.89106056 -.00000075  00000+0  16094-3 0  9994
2 37744  51.9952 330.5857 0000674  38.6175 339.0098 12.62274348623569
GLOBALSTAR M084         
1 38040U 11080A   24366.93280253 -.00000096  00000+0  40869-4 0  9994
2 38040  51.9979 197.6567 0001326  77.5722  69.9784 12.62273122601547
GLOBALSTAR M080         
1 38041U 11080B   24366.90517177 -.00000085  00000+0  10504-3 0  9990
2 38041  52.0033 199.2918 0001272  63.3272  76.9002 12.62260185601661
GLOBALSTAR M082         
1 38042U 11080C   24366.91770514 -.00000115  00000+0 -64643-4 0  9997
2 38042  52.0054 154.6789 0001224 126.3935  11.9851 12.62271794602377
GLOBALSTAR M092         
1 38043U 11080D   24366.87360479 -.00000060  00000+0  24542-3 0  9999
2 38043  52.0070 245.1832 0001063  73.4813 344.4101 12.62271355600822
GLOBALSTAR M090         
1 38044U 11080E   24366.78796410 -.00000110  00000+0 -32034-4 0  9991
2 38044  51.9866 149.0976 0000997 115.8479  32.6164 12.62265451602477
GLOBALSTAR M086         
1 38045U 11080F   24366.89071087 -.00000110  00000+0 -33194-4 0  9998
2 38045  51.9879 149.3224 0000437  45.5294  90.5140 12.62265327602439
GLOBALSTAR M097         
1 39072U 13005A   24366.57081677 -.00000084  00000+0  11286-3 0  9995
2 39072  52.0058  64.6755 0000391 145.1097 214.9795 12.62268329549642
GLOBALSTAR M093         
1 39073U 13005B   24366.62292607 -.00000080  00000+0  13218-3 0  9992
2 39073  51.9822  58.0832 0000339 152.9947 207.0937 12.62260506549601
GLOBALSTAR M094         
1 39074U 13005C   24366.62337925 -.00000095  00000+0  49619-4 0  9997
2 39074  51.9980 332.2998 0000172   9.1009 350.9861 12.62266515551214
GLOBALSTAR M096         
1 39075U 13005D   24366.79496053 -.00000087  00000+0  91011-4 0  9998
2 39075  52.0092  20.1611 0000244 183.3712 176.7153 12.62266248550155
GLOBALSTAR M078         
1 39076U 13005E   24366.76797762 -.00000170  00000+0 -36821-3 0  9998
2 39076  51.9877 104.9760 0001477 147.4374 212.6583 12.62267332548772
GLOBALSTAR M095         
1 39077U 13005F   24366.63640141 -.00000082  00000+0  12257-3 0  9991
2 39077  51.9799 102.6594 0001043 155.2998 204.7919 12.62269986548619
GLOBALSTAR M087         
1 52888U 22064A   24366.71916651 -.00000057  00000+0  21325-3 0  9990
2 52888  51.9768 245.9081 0021425  10.4926 349.6396 12.88918457123856
